SGSAT                   
1 42703U 98067LL  17171.60373209  .00017290  00000-0  24906-3 0  9996
2 42703  51.6406  20.9222 0002202 275.4635  84.6105 15.56122938  5387
CXBN-2                  
1 42704U 98067LM  17171.93140362  .00010288  00000-0  15416-3 0  9991
2 42704  51.6409  19.3602 0001733 282.3419  77.7378 15.55574967  5444
ICECUBE                 
1 42705U 98067LN  17171.48209933  .00014138  00000-0  20866-3 0  9995
2 42705  51.6410  21.6108 0001731 291.3107  68.7700 15.55639238  5437
PHOENIX                 
1 42706U 98067LP  17171.60707794  .00010612  00000-0  15785-3 0  9995
2 42706  51.6412  20.9454 0001041 320.2404  39.8511 15.55738850  5385
X-CUBESAT               
1 42707U 98067LQ  17171.60744791  .00010300  00000-0  15353-3 0  9999
2 42707  51.6408  20.9470 0001105 318.7573  41.3334 15.55717187  5379
QBEE50-LTU-OC           
1 42708U 98067LR  17171.60809757  .00010278  00000-0  15343-3 0  9997
2 42708  51.6408  20.9512 0001190 318.3662  41.7238 15.55681099  5331
ALTAIR PATHFINDER       
1 42711U 98067LS  17171.61768230  .00006885  00000-0  10722-3 0  9997
2 42711  51.6409  21.0136 0004085 271.5884  88.4639 15.55133683  5044
SHARC                   
1 42712U 98067LT  17171.61537728  .00006276  00000-0  98047-4 0  9995
2 42712  51.6412  20.9995 0002009 275.7233  84.3529 15.55221483  5283
ZA-AEROSAT              
1 42713U 98067LU  17171.93380435  .00008873  00000-0  13453-3 0  9994
2 42713  51.6408  19.3762 0001932 264.0864  95.9907 15.55455450  5098
LINK                    
1 42714U 98067LV  17171.93388693  .00009768  00000-0  14715-3 0  9995
2 42714  51.6407  19.3764 0002241 269.9041  90.1694 15.55495927  5201
CSUNSAT 1               
1 42715U 98067LW  17171.61550560  .00008913  00000-0  13573-3 0  9997
2 42715  51.6406  20.9999 0004194 261.2190  98.8327 15.55324530  5049
UPSAT                   
1 42716U 98067LX  17171.93028688  .00011835  00000-0  17524-3 0  9991
2 42716  51.6409  19.3528 0004374 344.7806  15.3054 15.55731574  5225
SPACECUBE               
1 42717U 98067LY  17171.61097019  .00009972  00000-0  14964-3 0  9995
2 42717  51.6410  20.9704 0004382 343.9324  16.1528 15.55573385  4416
HOOPOE                  
1 42718U 98067LZ  17171.61034504  .00010830  00000-0  16152-3 0  9992
2 42718  51.6410  20.9662 0004395 342.2877  17.7960 15.55638387  4410
CHALLENGER              
1 42721U 98067MA  17171.16835322  .00015389  00000-0  22749-3 0  9996
2 42721  51.6410  23.2626 0007498 317.8308  42.2106 15.55494886  4042
NJUST-1                 
1 42722U 98067MB  17171.94219219  .00008484  00000-0  13011-3 0  9994
2 42722  51.6410  19.4312 0007369 323.3180  36.7306 15.55193554  4160
UNSW-ECO                
1 42723U 98067MC  17171.94135563  .00011364  00000-0  17105-3 0  9993
2 42723  51.6411  19.4256 0007314 321.7018  38.3453 15.55313722  4141
DUTHSAT                 
1 42724U 98067MD  17171.94110937  .00013404  00000-0  19980-3 0  9992
2 42724  51.6409  19.4244 0006481 324.1060  35.9495 15.55404930  4088
LILACSAT-1              
1 42725U 98067ME  17171.62203700  .00007289  00000-0  11313-3 0  9995
2 42725  51.6411  21.0430 0006283 324.9791  35.0787 15.55117214  4011
NSIGHT-1                
1 42726U 98067MF  17171.94477166  .00004825  00000-0  77720-4 0  9998
2 42726  51.6413  19.4487 0006323 328.2598  31.8011 15.54970543  4075
SNUSAT-1                
1 42727U 98067MG  17171.62238828  .00009253  00000-0  14142-3 0  9992
2 42727  51.6404  21.0440 0007737 282.5312  77.4813 15.55155196  3985
QBITO                   
1 42728U 98067MH  17171.62042301  .00010135  00000-0  15361-3 0  9997
2 42728  51.6411  21.0332 0003512 335.3041  24.7781 15.55281334  3823
AALTO-2                 
1 42729U 98067MJ  17171.94159755  .00010271  00000-0  15549-3 0  9994
2 42729  51.6411  19.4283 0003530 335.7762  24.3063 15.55294958  3885
SUSAT                   
1 42730U 98067MK  17171.55666527  .00010263  00000-0  15560-3 0  9997
2 42730  51.6409  21.3574 0003595 333.6091  26.4717 15.55254698  3811
I-INSPIRE II            
1 42731U 98067ML  17171.49142383  .00011365  00000-0  17088-3 0  9991
2 42731  51.6404  21.6695 0007260 268.2758  91.7402 15.55344400  3851
POLYITAN-2-SAU          
1 42732U 98067MM  17171.61987666  .00009856  00000-0  14925-3 0  9996
2 42732  51.6403  21.0272 0007227 268.0742  91.9421 15.55327263  3873
SNUSAT-1B               
1 42733U 98067MN  17171.55661196  .00008911  00000-0  13619-3 0  9997
2 42733  51.6407  21.3443 0007494 249.1389 110.8800 15.55212635  3861
EXALTA-1                
1 42734U 98067MP  17171.61994448  .00010926  00000-0  16447-3 0  9995
2 42734  51.6406  21.0279 0008870 294.2018  65.8045 15.55346255  3826
AOXIANG-1               
1 42735U 98067MQ  17171.55661828  .00008286  00000-0  12706-3 0  9992
2 42735  51.6410  21.3559 0008009 317.9673  42.0703 15.55228413  5230
BEEAGLESAT              
1 42736U 98067MR  17171.94256033  .00009154  00000-0  13966-3 0  9998
2 42736  51.6409  19.4335 0007892 318.4706  41.5685 15.55220488  3988
ATLANTIS                
1 42737U 98067MS  17171.93856141  .00019554  00000-0  28443-3 0  9995
2 42737  51.6406  19.4072 0008068 313.6060  46.4261 15.55735417  3875
DRAGON CRS-11           
1 42744U 17030A   17171.52596809  .00002365  00000-0  43059-4 0  9994
2 42744  51.6433  21.6866 0004512 302.1660 156.7879 15.54064579  2599
DRAGON CRS-11 DEB       
1 42745U 17030B   17159.96454034  .16677887  00000-0  97800-3 0  9998
2 42745  51.6390  77.3925 0019391  52.7720 307.5737 16.40004405  1284
DRAGON CRS-11 DEB       
1 42746U 17030C   17158.18639517  .03496503  11855-4  15989-2 0  9994
2 42746  51.6432  87.1411 0062650  71.0341 350.3063 16.16161590   526
PROGRESS-MS 06          
1 42756U 17033A   17171.52596809  .00002365  00000-0  43059-4 0  9990
2 42756  51.6433  21.6866 0004512 302.1660 156.7879 15.54064579   961
